ATLAS CENTAUR R/B       
1 06155U 72065B   26039.30125454  .00001616  00000+0  22366-3 0  9996
2 06155  35.0011 117.9668 0033150 123.3475 237.0406 14.77600042836914
SL-8 R/B                
1 08459U 75112B   26039.28799663  .00000223  00000+0  81914-4 0  9995
2 08459  74.0592  73.0018 0015436 176.5222 183.6042 14.38188987627644
SL-3 R/B                
1 10114U 77057B   26039.25087516  .00014671  00000+0  31648-3 0  9990
2 10114  97.5735 209.9036 0008054  36.7096 323.4702 15.44637270663782
SEASAT 1                
1 10967U 78064A   26039.02850395  .00000380  00000+0  14463-3 0  9991
2 10967 108.0163  63.2516 0001582 291.2660  68.8316 14.46135920502227
SL-14 R/B               
1 11267U 79011B   26039.27052672  .00000810  00000+0  77464-4 0  9996
2 11267  82.5254 124.4848 0016786 151.2527 208.9622 14.91871769524392
SL-8 R/B                
1 11574U 79089B   26039.26758653  .00000366  00000+0  11866-3 0  9992
2 11574  74.0698 145.5052 0016556 321.8536  38.1447 14.42332211431869
SL-14 R/B               
1 11672U 80005B   26039.26422552  .00000904  00000+0  89038-4 0  9992
2 11672  82.5173 335.1396 0014115 261.1115  98.8506 14.90890927472103
SL-8 R/B                
1 12139U 81003B   26039.25416707  .00020453  00000+0  54241-3 0  9992
2 12139  82.9391 317.2181 0263318 281.4380  75.7385 15.09907106310234
SL-3 R/B                
1 12465U 81046B   26039.25064804  .00014479  00000+0  34568-3 0  9999
2 12465  81.2341 325.0646 0020672 118.5813 241.7513 15.41167471433896
SL-3 R/B                
1 12904U 81103B   26039.23771683  .00006043  00000+0  27063-3 0  9999
2 12904  81.1565 247.9783 0013739  28.1474 332.0497 15.21019436968758
SL-3 R/B                
1 13068U 82013B   26039.25845660  .00005652  00000+0  24722-3 0  9995
2 13068  81.1742 195.2514 0021722 279.6709  80.2069 15.21685894399874
SL-3 R/B                
1 13154U 82039B   26039.23484393  .00002733  00000+0  16540-3 0  9995
2 13154  81.1613 249.9124 0030073  60.8237 299.5991 15.09917193377192
