CCSDS_OMM_VERS = 2.0
CREATION_DATE  = 
ORIGINATOR     = 

OBJECT_NAME    = ATLAS CENTAUR R/B
OBJECT_ID      = 1972-065B
CENTER_NAME    = EARTH
REF_FRAME      = TEME
TIME_SYSTEM    = UTC
MEAN_ELEMENT_THEORY = SGP/SGP4

EPOCH          = 2026-02-08T07:13:48.392256
MEAN_MOTION    = 14.77600042
ECCENTRICITY   = .00331503
INCLINATION    = 35.0011
RA_OF_ASC_NODE = 117.9668
ARG_OF_PERICENTER = 123.3475
MEAN_ANOMALY   = 237.0406

EPHEMERIS_TYPE = 0
CLASSIFICATION_TYPE = U
NORAD_CAT_ID   = 6155
ELEMENT_SET_NO = 999
REV_AT_EPOCH   = 83691
BSTAR          = .22365887E-3
MEAN_MOTION_DOT = .1616E-4
MEAN_MOTION_DDOT = 0

CCSDS_OMM_VERS = 2.0
CREATION_DATE  = 
ORIGINATOR     = 

OBJECT_NAME    = SL-8 R/B
OBJECT_ID      = 1975-112B
CENTER_NAME    = EARTH
REF_FRAME      = TEME
TIME_SYSTEM    = UTC
MEAN_ELEMENT_THEORY = SGP/SGP4

EPOCH          = 2026-02-08T06:54:42.908832
MEAN_MOTION    = 14.38188987
ECCENTRICITY   = .00154365
INCLINATION    = 74.0592
RA_OF_ASC_NODE = 73.0018
ARG_OF_PERICENTER = 176.5222
MEAN_ANOMALY   = 183.6042

EPHEMERIS_TYPE = 0
CLASSIFICATION_TYPE = U
NORAD_CAT_ID   = 8459
ELEMENT_SET_NO = 999
REV_AT_EPOCH   = 62764
BSTAR          = .81913672E-4
MEAN_MOTION_DOT = .223E-5
MEAN_MOTION_DDOT = 0

CCSDS_OMM_VERS = 2.0
CREATION_DATE  = 
ORIGINATOR     = 

OBJECT_NAME    = SL-3 R/B
OBJECT_ID      = 1977-057B
CENTER_NAME    = EARTH
REF_FRAME      = TEME
TIME_SYSTEM    = UTC
MEAN_ELEMENT_THEORY = SGP/SGP4

EPOCH          = 2026-02-08T06:01:15.613824
MEAN_MOTION    = 15.44637270
ECCENTRICITY   = .00080541
INCLINATION    = 97.5735
RA_OF_ASC_NODE = 209.9036
ARG_OF_PERICENTER = 36.7096
MEAN_ANOMALY   = 323.4702

EPHEMERIS_TYPE = 0
CLASSIFICATION_TYPE = U
NORAD_CAT_ID   = 10114
ELEMENT_SET_NO = 999
REV_AT_EPOCH   = 66378
BSTAR          = .31647964E-3
MEAN_MOTION_DOT = .14671E-3
MEAN_MOTION_DDOT = 0

CCSDS_OMM_VERS = 2.0
CREATION_DATE  = 
ORIGINATOR     = 

OBJECT_NAME    = SEASAT 1
OBJECT_ID      = 1978-064A
CENTER_NAME    = EARTH
REF_FRAME      = TEME
TIME_SYSTEM    = UTC
MEAN_ELEMENT_THEORY = SGP/SGP4

EPOCH          = 2026-02-08T00:41:02.741280
MEAN_MOTION    = 14.46135920
ECCENTRICITY   = .00015824
INCLINATION    = 108.0163
RA_OF_ASC_NODE = 63.2516
ARG_OF_PERICENTER = 291.2660
MEAN_ANOMALY   = 68.8316

EPHEMERIS_TYPE = 0
CLASSIFICATION_TYPE = U
NORAD_CAT_ID   = 10967
ELEMENT_SET_NO = 999
REV_AT_EPOCH   = 50222
BSTAR          = .14462913E-3
MEAN_MOTION_DOT = .38E-5
MEAN_MOTION_DDOT = 0

CCSDS_OMM_VERS = 2.0
CREATION_DATE  = 
ORIGINATOR     = 

OBJECT_NAME    = SL-14 R/B
OBJECT_ID      = 1979-011B
CENTER_NAME    = EARTH
REF_FRAME      = TEME
TIME_SYSTEM    = UTC
MEAN_ELEMENT_THEORY = SGP/SGP4

EPOCH          = 2026-02-08T06:29:33.508608
MEAN_MOTION    = 14.91871769
ECCENTRICITY   = .00167865
INCLINATION    = 82.5254
RA_OF_ASC_NODE = 124.4848
ARG_OF_PERICENTER = 151.2527
MEAN_ANOMALY   = 208.9622

EPHEMERIS_TYPE = 0
CLASSIFICATION_TYPE = U
NORAD_CAT_ID   = 11267
ELEMENT_SET_NO = 999
REV_AT_EPOCH   = 52439
BSTAR          = .77464406E-4
MEAN_MOTION_DOT = .81E-5
MEAN_MOTION_DDOT = 0

CCSDS_OMM_VERS = 2.0
CREATION_DATE  = 
ORIGINATOR     = 

OBJECT_NAME    = SL-8 R/B
OBJECT_ID      = 1979-089B
CENTER_NAME    = EARTH
REF_FRAME      = TEME
TIME_SYSTEM    = UTC
MEAN_ELEMENT_THEORY = SGP/SGP4

EPOCH          = 2026-02-08T06:25:19.476192
MEAN_MOTION    = 14.42332211
ECCENTRICITY   = .00165567
INCLINATION    = 74.0698
RA_OF_ASC_NODE = 145.5052
ARG_OF_PERICENTER = 321.8536
MEAN_ANOMALY   = 38.1447

EPHEMERIS_TYPE = 0
CLASSIFICATION_TYPE = U
NORAD_CAT_ID   = 11574
ELEMENT_SET_NO = 999
REV_AT_EPOCH   = 43186
BSTAR          = .11865978E-3
MEAN_MOTION_DOT = .366E-5
MEAN_MOTION_DDOT = 0

CCSDS_OMM_VERS = 2.0
CREATION_DATE  = 
ORIGINATOR     = 

OBJECT_NAME    = SL-14 R/B
OBJECT_ID      = 1980-005B
CENTER_NAME    = EARTH
REF_FRAME      = TEME
TIME_SYSTEM    = UTC
MEAN_ELEMENT_THEORY = SGP/SGP4

EPOCH          = 2026-02-08T06:20:29.084928
MEAN_MOTION    = 14.90890927
ECCENTRICITY   = .00141158
INCLINATION    = 82.5173
RA_OF_ASC_NODE = 335.1396
ARG_OF_PERICENTER = 261.1115
MEAN_ANOMALY   = 98.8506

EPHEMERIS_TYPE = 0
CLASSIFICATION_TYPE = U
NORAD_CAT_ID   = 11672
ELEMENT_SET_NO = 999
REV_AT_EPOCH   = 47210
BSTAR          = .89038336E-4
MEAN_MOTION_DOT = .904E-5
MEAN_MOTION_DDOT = 0

CCSDS_OMM_VERS = 2.0
CREATION_DATE  = 
ORIGINATOR     = 

OBJECT_NAME    = SL-8 R/B
OBJECT_ID      = 1981-003B
CENTER_NAME    = EARTH
REF_FRAME      = TEME
TIME_SYSTEM    = UTC
MEAN_ELEMENT_THEORY = SGP/SGP4

EPOCH          = 2026-02-08T06:06:00.034848
MEAN_MOTION    = 15.09907106
ECCENTRICITY   = .02633185
INCLINATION    = 82.9391
RA_OF_ASC_NODE = 317.2181
ARG_OF_PERICENTER = 281.4380
MEAN_ANOMALY   = 75.7385

EPHEMERIS_TYPE = 0
CLASSIFICATION_TYPE = U
NORAD_CAT_ID   = 12139
ELEMENT_SET_NO = 999
REV_AT_EPOCH   = 31023
BSTAR          = .54241236E-3
MEAN_MOTION_DOT = .20453E-3
MEAN_MOTION_DDOT = 0

CCSDS_OMM_VERS = 2.0
CREATION_DATE  = 
ORIGINATOR     = 

OBJECT_NAME    = SL-3 R/B
OBJECT_ID      = 1981-046B
CENTER_NAME    = EARTH
REF_FRAME      = TEME
TIME_SYSTEM    = UTC
MEAN_ELEMENT_THEORY = SGP/SGP4

EPOCH          = 2026-02-08T06:00:55.990656
MEAN_MOTION    = 15.41167471
ECCENTRICITY   = .0020672
INCLINATION    = 81.2341
RA_OF_ASC_NODE = 325.0646
ARG_OF_PERICENTER = 118.5813
MEAN_ANOMALY   = 241.7513

EPHEMERIS_TYPE = 0
CLASSIFICATION_TYPE = U
NORAD_CAT_ID   = 12465
ELEMENT_SET_NO = 999
REV_AT_EPOCH   = 43389
BSTAR          = .34568399E-3
MEAN_MOTION_DOT = .14479E-3
MEAN_MOTION_DDOT = 0

CCSDS_OMM_VERS = 2.0
CREATION_DATE  = 
ORIGINATOR     = 

OBJECT_NAME    = SL-3 R/B
OBJECT_ID      = 1981-103B
CENTER_NAME    = EARTH
REF_FRAME      = TEME
TIME_SYSTEM    = UTC
MEAN_ELEMENT_THEORY = SGP/SGP4

EPOCH          = 2026-02-08T05:42:18.734112
MEAN_MOTION    = 15.21019436
ECCENTRICITY   = .00137392
INCLINATION    = 81.1565
RA_OF_ASC_NODE = 247.9783
ARG_OF_PERICENTER = 28.1474
MEAN_ANOMALY   = 332.0497

EPHEMERIS_TYPE = 0
CLASSIFICATION_TYPE = U
NORAD_CAT_ID   = 12904
ELEMENT_SET_NO = 999
REV_AT_EPOCH   = 96875
BSTAR          = .27063229E-3
MEAN_MOTION_DOT = .6043E-4
MEAN_MOTION_DDOT = 0

CCSDS_OMM_VERS = 2.0
CREATION_DATE  = 
ORIGINATOR     = 

OBJECT_NAME    = SL-3 R/B
OBJECT_ID      = 1982-013B
CENTER_NAME    = EARTH
REF_FRAME      = TEME
TIME_SYSTEM    = UTC
MEAN_ELEMENT_THEORY = SGP/SGP4

EPOCH          = 2026-02-08T06:12:10.650240
MEAN_MOTION    = 15.21685894
ECCENTRICITY   = .00217226
INCLINATION    = 81.1742
RA_OF_ASC_NODE = 195.2514
ARG_OF_PERICENTER = 279.6709
MEAN_ANOMALY   = 80.2069

EPHEMERIS_TYPE = 0
CLASSIFICATION_TYPE = U
NORAD_CAT_ID   = 13068
ELEMENT_SET_NO = 999
REV_AT_EPOCH   = 39987
BSTAR          = .24722465E-3
MEAN_MOTION_DOT = .5652E-4
MEAN_MOTION_DDOT = 0

CCSDS_OMM_VERS = 2.0
CREATION_DATE  = 
ORIGINATOR     = 

OBJECT_NAME    = SL-3 R/B
OBJECT_ID      = 1982-039B
CENTER_NAME    = EARTH
REF_FRAME      = TEME
TIME_SYSTEM    = UTC
MEAN_ELEMENT_THEORY = SGP/SGP4

EPOCH          = 2026-02-08T05:38:10.515552
MEAN_MOTION    = 15.09917193
ECCENTRICITY   = .00300736
INCLINATION    = 81.1613
RA_OF_ASC_NODE = 249.9124
ARG_OF_PERICENTER = 60.8237
MEAN_ANOMALY   = 299.5991

EPHEMERIS_TYPE = 0
CLASSIFICATION_TYPE = U
NORAD_CAT_ID   = 13154
ELEMENT_SET_NO = 999
REV_AT_EPOCH   = 37719
BSTAR          = .16540483E-3
MEAN_MOTION_DOT = .2733E-4
MEAN_MOTION_DDOT = 0

